{
    "links": {
        "self": "http://www.neowsapp.com/rest/v1/neo/3698544?api_key=iIulBulltgU6a56xZRHN4H3l9WmuAYTsLGpBGhQ2"
    },
    "id": "3698544",
    "neo_reference_id": "3698544",
    "name": "(2014 HX198)",
    "designation": "2014 HX198",
    "nasa_jpl_url": "http://ssd.jpl.nasa.gov/sbdb.cgi?sstr=3698544",
    "absolute_magnitude_h": 27.0,
    "estimated_diameter": {
        "kilometers": {
            "estimated_diameter_min": 0.0105816886,
            "estimated_diameter_max": 0.023661375
        },
        "meters": {
            "estimated_diameter_min": 10.5816885933,
            "estimated_diameter_max": 23.6613750114
        },
        "miles": {
            "estimated_diameter_min": 0.0065751544,
            "estimated_diameter_max": 0.0147024923
        },
        "feet": {
            "estimated_diameter_min": 34.7168272045,
            "estimated_diameter_max": 77.6291855923
        }
    },
    "is_potentially_hazardous_asteroid": false,
    "close_approach_data": [
        {
            "close_approach_date": "2014-02-05",
            "close_approach_date_full": "2014-Feb-05 16:30",
            "epoch_date_close_approach": 1391617800000,
            "relative_velocity": {
                "kilometers_per_second": "9.7707970556",
                "kilometers_per_hour": "35174.8694000102",
                "miles_per_hour": "21856.2959335786"
            },
            "miss_distance": {
                "astronomical": "0.0629110757",
                "lunar": "24.4724084473",
                "kilometers": "9411362.924128759",
                "miles": "5847949.7480205142"
            },
            "orbiting_body": "Mars"
        },
        {
            "close_approach_date": "2014-05-13",
            "close_approach_date_full": "2014-May-13 06:07",
            "epoch_date_close_approach": 1399961220000,
            "relative_velocity": {
                "kilometers_per_second": "11.4106996665",
                "kilometers_per_hour": "41078.5187995285",
                "miles_per_hour": "25524.5940840737"
            },
            "miss_distance": {
                "astronomical": "0.0346988292",
                "lunar": "13.4978445588",
                "kilometers": "5190870.939813804",
                "miles": "3225457.6355423352"
            },
            "orbiting_body": "Earth"
        }
    ],
    "orbital_data": {
        "orbit_id": "3",
        "orbit_determination_date": "2017-04-06 08:40:46",
        "first_observation_date": "2014-04-28",
        "last_observation_date": "2014-05-05",
        "data_arc_in_days": 7,
        "observations_used": 42,
        "orbit_uncertainty": "8",
        "minimum_orbit_intersection": ".0219461",
        "jupiter_tisserand_invariant": "4.052",
        "epoch_osculation": "2456778.5",
        "eccentricity": ".4731445535707666",
        "semi_major_axis": "1.710340848120014",
        "inclination": "2.058324952264849",
        "ascending_node_longitude": "18.5065004383821",
        "orbital_period": "817.0007007715432",
        "perihelion_distance": ".9011023910824236",
        "perihelion_argument": "265.8995221436525",
        "aphelion_distance": "2.519579305157604",
        "perihelion_time": "2456830.325820187914",
        "mean_anomaly": "337.1636728707456",
        "mean_motion": ".4406360969580935",
        "equinox": "J2000",
        "orbit_class": {
            "orbit_class_type": "APO",
            "orbit_class_description": "Near-Earth asteroid orbits which cross the Earth’s orbit similar to that of 1862 Apollo",
            "orbit_class_range": "a (semi-major axis) > 1.0 AU; q (perihelion) < 1.017 AU"
        }
    },
    "is_sentry_object": false
}